HIMAWARI-8              
1 40267U 14060A   24038.75069922 -.00000270  00000+0  00000+0 0  9995
2 40267   0.0502 249.1736 0000534  80.8121 218.2607  1.00269679 34230
